[{"OBJECT_NAME":"STRIX-4","OBJECT_ID":"2024-137A","EPOCH":"2026-03-09T15:41:49.501824","MEAN_MOTION":15.29026224,"ECCENTRICITY":0.00168396,"INCLINATION":43.0134,"RA_OF_ASC_NODE":129.8162,"ARG_OF_PERICENTER":5.2738,"MEAN_ANOMALY":354.8289,"EPHEMERIS_TYPE":0,"CLASSIFICATION_TYPE":"U","NORAD_CAT_ID":60352,"ELEMENT_SET_NO":999,"REV_AT_EPOCH":8876,"BSTAR":0.00071819834,"MEAN_MOTION_DOT":0.0002053,"MEAN_MOTION_DDOT":0},{"OBJECT_NAME":"STARLINK-32553","OBJECT_ID":"2024-217Q","EPOCH":"2026-03-09T22:00:01.999584","MEAN_MOTION":15.30196298,"ECCENTRICITY":0.00012,"INCLINATION":53.1589,"RA_OF_ASC_NODE":193.0983,"ARG_OF_PERICENTER":84.5668,"MEAN_ANOMALY":235.3429,"EPHEMERIS_TYPE":0,"CLASSIFICATION_TYPE":"U","NORAD_CAT_ID":62071,"ELEMENT_SET_NO":999,"REV_AT_EPOCH":580,"BSTAR":2.332763e-5,"MEAN_MOTION_DOT":3.32e-6,"MEAN_MOTION_DDOT":0}]
